HST                     
1 20580U 90037B   26005.36698112  .00008156  00000+0  27853-3 0  9990
2 20580  28.4668 111.6230 0002481 126.0839 233.9986 15.28406255763610
POLAR                   
1 23802U 96013A   26004.75026263  .00000205  00000+0  00000+0 0  9992
2 23802  79.6569 228.9005 6306248 214.6056  80.4721  1.29846089142734
SWAS                    
1 25560U 98071A   26006.20615692  .00006211  00000+0  40631-3 0  9994
2 25560  69.8976 284.8346 0004808 181.3731 178.7420 15.08256435472836
CXO                     
1 25867U 99040B   26002.77389708  .00000599  00000+0  00000+0 0  9990
2 25867  53.4579 121.7282 8107581 310.8774   0.1301  0.37803565 16702
XMM-NEWTON              
1 25989U 99066A   26005.79924447  .00000030  00000+0  00000+0 0  9993
2 25989  65.3099 285.1303 4733924  67.7703   0.1948  0.50133547 22195
TERRA                   
1 25994U 99068A   26006.25636671  .00000650  00000+0  14177-3 0  9994
2 25994  97.9712  62.0368 0002914  44.2719  29.6436 14.60935457385969
CLUSTER II-FM7 (SAMBA)  
1 26410U 00041A   26007.45300118  .00003784  00000+0  00000+0 0  9995
2 26410 148.0973  27.9887 8808141 243.8040 359.2610  0.44792701 19593
CLUSTER II-FM8 (TANGO)  
1 26464U 00045B   26006.27688583  .00003911  00000+0  00000+0 0  9994
2 26464 148.3740  28.5582 8810230 244.2261 359.2282  0.44417797 19581
ODIN                    
1 26702U 01007A   26006.33574143  .00036013  00000+0  57426-3 0  9998
2 26702  97.4175  40.0584 0004716  51.3798 308.7877 15.53140406364141
TIMED                   
1 26998U 01055B   26006.27441311  .00001813  00000+0  17028-3 0  9995
2 26998  74.0672 200.9147 0000376 330.4572  29.6591 14.94778770306628
CORIOLIS                
1 27640U 03001A   26006.26562640  .00000190  00000+0  11005-3 0  9997
2 27640  98.7139  15.6166 0013405 322.8969  37.1280 14.19884123191244
SORCE                   
1 27651U 03004A   26006.29924411  .00004424  00000+0  33714-3 0  9998
2 27651  39.9911 104.5669 0017336 324.5652  35.3989 15.02524336247532
MOST                    
1 27843U 03031D   26006.29661945  .00000124  00000+0  76910-4 0  9990
2 27843  98.7067  16.2695 0009932   6.3173 353.8127 14.21278896167714
SCISAT 1                
1 27858U 03036A   26005.73674100  .00001483  00000+0  19520-3 0  9998
2 27858  73.9307 134.0567 0008443 241.2424 118.7905 14.81175453207396
SWIFT                   
1 28485U 04047A   26006.23523954  .00054720  00000+0  82818-3 0  9996
2 28485  20.5550 340.2485 0004639 232.0924 127.9099 15.52913026161522
HINODE (SOLAR-B)        
1 29479U 06041A   26006.29029336  .00001005  00000+0  18208-3 0  9997
2 29479  98.0638  24.7791 0018799  82.4886 277.8454 14.68351980 31115
SHIJIAN-6 02A (SJ-6 02A)
1 29505U 06046A   26006.30394716  .00013370  00000+0  72487-3 0  9998
2 29505  97.6589  46.2063 0003186   7.8718 352.2563 15.14703507 47748
SHIJIAN-6 02B (SJ-6 02B)
1 29506U 06046B   26006.29354646  .00003022  00000+0  24331-3 0  9993
2 29506  97.6918  36.6087 0012130 251.5531 108.4374 15.00662177 46454
FGRST (GLAST)           
1 33053U 08029A   26005.98396403  .00004214  00000+0  16114-3 0  9994
2 33053  25.5814 249.8588 0008050 212.0240 147.9809 15.22813645971078
SDO                     
1 36395U 10005A   26006.23725337 -.00000089  00000+0  00000+0 0  9994
2 36395  34.3118  88.8101 0000650 150.5505 209.5598  1.00268650 58443
CRYOSAT 2               
1 36508U 10013A   26006.25736082  .00000209  00000+0  51097-4 0  9990
2 36508  92.0245 238.1030 0002656  90.8875 269.2637 14.51908826834586
X-SAT                   
1 37389U 11015C   26006.25837166  .00000242  00000+0  12030-3 0  9996
2 37389  98.3332 351.1638 0015212  97.3434 262.9476 14.25142057764619
GCOM-W1 (SHIZUKU)       
1 38337U 12025A   26006.32654340  .00000894  00000+0  20868-3 0  9992
2 38337  98.2243 309.2182 0001285  87.6629  30.1204 14.57074701725463
NUSTAR                  
1 38358U 12031A   26006.33334491  .00002329  00000+0  97205-4 0  9990
2 38358   6.0255 166.4980 0008869 230.4195 128.5491 15.06775066  1303
NEOSSAT                 
1 39089U 13009D   26006.25424625  .00000271  00000+0  10850-3 0  9992
2 39089  98.4080 190.1784 0011256  15.0292 345.1226 14.35746743673502
BRITE-AUSTRIA           
1 39091U 13009F   26006.05432383  .00000314  00000+0  12167-3 0  9994
2 39091  98.3895 189.5492 0010368  10.6949 349.4456 14.36453203673777
IRIS                    
1 39197U 13033A   26006.11983053  .00002130  00000+0  25237-3 0  9990
2 39197  97.9386 205.8374 0025490 127.1786 233.1762 14.85399014676315
HISAKI (SPRINT-A)       
1 39253U 13049A   26006.17412918  .00000121  00000+0  75665-4 0  9992
2 39253  29.7212 323.6842 0136925 143.4026 217.5989 13.55524101609420
CASSIOPE                
1 39265U 13055A   26006.24760652  .00034457 -27584-6  45151-3 0  9990
2 39265  80.9196 261.7130 0333027 243.9381 112.7218 15.13492626643079
STSAT-3                 
1 39422U 13066G   26006.25012598  .00004646  00000+0  36234-3 0  9992
2 39422  97.6057 339.1102 0011534 220.1879 139.8494 15.01602505659898
SWARM B                 
1 39451U 13067A   26003.41996620  .00006998  00000+0  26136-3 0  9999
2 39451  87.7420  32.2842 0002691  81.7083 278.4470 15.27207579658082
SWARM A                 
1 39452U 13067B   26006.27436646  .00013337  00000+0  26207-3 0  9998
2 39452  87.3375 116.2265 0002479  95.0912 265.0630 15.47157245681186
SWARM C                 
1 39453U 13067C   26006.27428377  .00013347  00000+0  26226-3 0  9993
2 39453  87.3372 114.8109 0002498  95.0991 265.0553 15.47157555681147
BRITE-CA1 (TORONTO)     
1 40020U 14033L   26006.31137572  .00001462  00000+0  22788-3 0  9992
2 40020  97.9505 138.5070 0080347  75.4385 285.5717 14.72292010618391
OCO 2                   
1 40059U 14035A   26006.30149335  .00000770  00000+0  18096-3 0  9993
2 40059  98.2246 309.9369 0001585  90.6056 269.5324 14.57086060612473
BRITE-PL2 (HEWELIUSZ)   
1 40119U 14049B   26006.25146982  .00003540  00000+0  33875-3 0  9994
2 40119  97.8990 117.2416 0012844 288.6943  71.2882 14.93803322617265
MMS 1                   
1 40482U 15011A   26006.33334491 -.00001209  00000+0  00000+0 0  9991
2 40482  69.8096 351.1002 8488140 163.9966 349.7942  0.28158964  1331
MMS 2                   
1 40483U 15011B   26006.33334491 -.00001209  00000+0  00000+0 0  9992
2 40483  69.8063 351.0911 8489471 164.0139 349.7595  0.28162354  1338
MMS 3                   
1 40484U 15011C   26006.33334491 -.00001209  00000+0  00000+0 0  9993
2 40484  69.8119 351.1074 8489610 164.0087 349.7566  0.28157622  1339
MMS 4                   
1 40485U 15011D   26006.33334491 -.00001210  00000+0  00000+0 0  9996
2 40485  69.8121 351.0994 8490890 163.9954 349.7925  0.28157906  1330
ASTROSAT                
1 40930U 15052A   26006.14470436  .00002172  00000+0  18431-3 0  9993
2 40930   5.9959 241.4411 0008884 243.7063 116.2152 14.82097612555749
DAMPE                   
1 41173U 15078A   26006.29185950  .00002303  00000+0  81254-4 0  9991
2 41173  97.4546  11.0266 0010568 295.2773  64.7372 15.30257379559789
PISAT                   
1 41784U 16059B   26006.28238556  .00001625  00000+0  28618-3 0  9999
2 41784  97.8161  13.7553 0029350   5.7475 354.4062 14.68578423495975
HXMT (HUIYAN)           
1 42758U 17034A   26006.29413186  .00006779  00000+0  34791-3 0  9994
2 42758  43.0155   3.3398 0032718 202.3833 157.5589 15.16598464473063
FLYING LAPTOP           
1 42831U 17042G   26006.28415589  .00002203  00000+0  18099-3 0  9994
2 42831  97.4241 168.7884 0013620 321.6566  38.3689 15.00081349462178
ZHANGHENG 1-01 (CSES-1) 
1 43194U 18015C   26006.28157309  .00002860  00000+0  13207-3 0  9996
2 43194  97.6671 168.8863 0019272 113.1182 247.2087 15.20898983440031
SALSAT                  
1 46495U 20068K   26006.24361820  .00010060  00000+0  38377-3 0  9991
2 46495  97.8800 359.8473 0011458 141.5010 218.7047 15.26831468290624
IXPE                    
1 49954U 21121A   26005.66668981  .00015417  00000+0  90578-3 0  9990
2 49954   0.2301 104.3185 0007847 142.8793 224.9478 15.08310862  5635
